NORAD_CAT_ID,OBJECT_NAME,OBJECT_TYPE,EPOCH,MEAN_MOTION,ECCENTRICITY,INCLINATION,RA_OF_ASC_NODE,ARG_OF_PERICENTER,MEAN_ANOMALY,BSTAR,MEAN_MOTION_DOT,MEAN_MOTION_DDOT,TLE_LINE0,TLE_LINE1,TLE_LINE2,SEMIMAJOR_AXIS,PERIOD,APOGEE,PERIGEE,DECAYED
55307.0,STARLINK-5288,PAYLOAD,2023-02-15 22:58:50,15.69970789,0.0003686,69.9999,351.7962,271.2557,88.8217,0.00084012,0.00102247,0.0,0 STARLINK-5288,1 55307U 23010AQ  23046.95753295  .00102247  00000-0  84012-3 0  9990,2 55307  69.9999 351.7962 0003686 271.2557  88.8217 15.69970789  4816,6737.118,91.721,361.466,356.499,0.0
55307.0,STARLINK-5288,PAYLOAD,2023-02-16 08:09:21,15.69957948,0.00035,70.0003,350.7214,267.934,92.1455,0.00052048,0.00062931,0.0,0 STARLINK-5288,1 55307U 23010AQ  23047.33983090  .00062931  00000-0  52048-3 0  9990,2 55307  70.0003 350.7214 0003500 267.9340  92.1455 15.69957948  4871,6737.154,91.722,361.377,356.661,0.0
55307.0,STARLINK-5288,PAYLOAD,2023-02-16 12:44:37,15.6989582,0.0003679,70.0004,350.1843,275.4243,84.6533,0.00036987,0.00044447,0.0,0 STARLINK-5288,1 55307U 23010AQ  23047.53098823  .00044447  00000-0  36987-3 0  9999,2 55307  70.0004 350.1843 0003679 275.4243  84.6533 15.69895820  5220,6737.332,91.726,361.676,356.718,0.0
55307.0,STARLINK-5288,PAYLOAD,2023-02-16 14:16:22,15.6989333,0.0003582,70.0004,350.0051,279.3324,80.7466,0.00041567,0.00050005,0.0,0 STARLINK-5288,1 55307U 23010AQ  23047.59470698  .00050005  00000-0  41567-3 0  9996,2 55307  70.0004 350.0051 0003582 279.3324  80.7466 15.69893330  4917,6737.339,91.726,361.617,356.791,0.0
55307.0,STARLINK-5288,PAYLOAD,2023-02-16 21:55:08,15.6993806,0.0003626,70.0006,349.1095,279.2597,80.8188,0.00084156,0.00102283,0.0,0 STARLINK-5288,1 55307U 23010AQ  23047.91329250  .00102283  00000-0  84156-3 0  9996,2 55307  70.0006 349.1095 0003626 279.2597  80.8188 15.69938060  5289,6737.211,91.723,361.519,356.633,0.0
55307.0,STARLINK-5288,PAYLOAD,2023-02-16 23:26:53,15.69952509,0.0003587,70.0007,348.9302,280.0424,80.0366,0.00084398,0.00102643,0.0,0 STARLINK-5288,1 55307U 23010AQ  23047.97700836  .00102643  00000-0  84398-3 0  9993,2 55307  70.0007 348.9302 0003587 280.0424  80.0366 15.69952509  4972,6737.17,91.723,361.451,356.618,0.0
55307.0,STARLINK-5288,PAYLOAD,2023-02-17 05:33:53,15.69935259,0.0003819,70.0007,348.2135,283.9876,76.0895,0.00016313,0.00019458,0.0,0 STARLINK-5288,1 55307U 23010AQ  23048.23187466  .00019458  00000-0  16313-3 0  9994,2 55307  70.0007 348.2135 0003819 283.9876  76.0895 15.69935259  5011,6737.219,91.724,361.657,356.511,0.0
55307.0,STARLINK-5288,PAYLOAD,2023-02-17 13:12:39,15.69903139,0.0003745,70.0009,347.3181,281.1169,78.9605,0.00054589,0.0006589,0.0,0 STARLINK-5288,1 55307U 23010AQ  23048.55046273  .00065890  00000-0  54589-3 0  9997,2 55307  70.0009 347.3181 0003745 281.1169  78.9605 15.69903139  5064,6737.311,91.725,361.699,356.653,0.0
55307.0,STARLINK-5288,PAYLOAD,2023-02-17 22:23:10,15.69942069,0.0003685,70.0009,346.2427,279.4296,80.6483,0.00066365,0.00080418,0.0,0 STARLINK-5288,1 55307U 23010AQ  23048.93276491  .00080418  00000-0  66365-3 0  9994,2 55307  70.0009 346.2427 0003685 279.4296  80.6483 15.69942069  5440,6737.2,91.723,361.547,356.582,0.0
55307.0,STARLINK-5288,PAYLOAD,2023-02-18 10:37:11,15.69932446,0.0003735,70.0015,344.8094,288.122,71.9568,0.00010024,0.00011862,0.0,0 STARLINK-5288,1 55307U 23010AQ  23049.44249277  .00011862  00000-0  10024-3 0  9991,2 55307  70.0015 344.8094 0003735 288.1220  71.9568 15.69932446  5200,6737.227,91.724,361.609,356.576,0.0
55307.0,STARLINK-5288,PAYLOAD,2023-02-18 13:40:41,15.69933103,0.0003787,70.0014,344.4519,281.5591,78.518,-1.9138e-05,-2.515e-05,0.0,0 STARLINK-5288,1 55307U 23010AQ  23049.56992462 -.00002515  00000-0 -19138-4 0  9998,2 55307  70.0014 344.4519 0003787 281.5591  78.5180 15.69933103  5543,6737.225,91.724,361.642,356.539,0.0
55307.0,STARLINK-5288,PAYLOAD,2023-02-19 14:08:43,15.69926973,0.000372,70.0016,341.5852,278.1222,81.9552,0.00040919,0.00049287,0.0,0 STARLINK-5288,1 55307U 23010AQ  23050.58939331  .00049287  00000-0  40919-3 0  9993,2 55307  70.0016 341.5852 0003720 278.1222  81.9552 15.69926973  5709,6737.243,91.724,361.614,356.602,0.0
55307.0,STARLINK-5288,PAYLOAD,2023-02-19 15:40:28,15.6992636,0.0003723,70.0016,341.4061,277.3525,82.7248,0.00047067,0.00056774,0.0,0 STARLINK-5288,1 55307U 23010AQ  23050.65310991  .00056774  00000-0  47067-3 0  9996,2 55307  70.0016 341.4061 0003723 277.3525  82.7248 15.69926360  5396,6737.245,91.724,361.618,356.601,0.0
55307.0,STARLINK-5288,PAYLOAD,2023-02-19 23:19:14,15.69935988,0.0003665,70.0013,340.5104,273.7566,86.3211,0.00040487,0.0004878,0.0,0 STARLINK-5288,1 55307U 23010AQ  23050.97169392  .00048780  00000-0  40487-3 0  9995,2 55307  70.0013 340.5104 0003665 273.7566  86.3211 15.69935988  5443,6737.217,91.723,361.551,356.613,0.0
55307.0,STARLINK-5288,PAYLOAD,2023-02-20 13:05:00,15.69918583,0.0003648,70.0015,338.8982,266.6311,93.4467,2.9762e-05,3.367e-05,0.0,0 STARLINK-5288,1 55307U 23010AQ  23051.54514546  .00003367  00000-0  29762-4 0  9990,2 55307  70.0015 338.8982 0003648 266.6311  93.4467 15.69918583  5533,6737.267,91.725,361.59,356.674,0.0
55307.0,STARLINK-5288,PAYLOAD,2023-02-20 23:47:16,15.69948822,0.0003603,70.0015,337.6441,262.251,97.8277,0.000564,0.0006823,0.0,0 STARLINK-5288,1 55307U 23010AQ  23051.99116042  .00068230  00000-0  56400-3 0  9996,2 55307  70.0015 337.6441 0003603 262.2510  97.8277 15.69948822  5608,6737.18,91.723,361.473,356.618,0.0
55307.0,STARLINK-5288,PAYLOAD,2023-02-21 04:22:31,15.69945724,0.0003574,70.0014,337.1071,264.2347,95.8441,0.00033399,0.00040177,0.0,0 STARLINK-5288,1 55307U 23010AQ  23052.18230946  .00040177  00000-0  33399-3 0  9990,2 55307  70.0014 337.1071 0003574 264.2347  95.8441 15.69945724  5630,6737.189,91.723,361.462,356.646,0.0
55307.0,STARLINK-5288,PAYLOAD,2023-02-21 13:33:01,15.6994701,0.0003771,70.0012,336.0323,265.4503,94.6262,0.00045662,0.0005511,0.0,0 STARLINK-5288,1 55307U 23010AQ  23052.56460527  .00055110  00000-0  45662-3 0  9991,2 55307  70.0012 336.0323 0003771 265.4503  94.6262 15.69947010  5696,6737.186,91.723,361.591,356.51,0.0
55307.0,STARLINK-5288,PAYLOAD,2023-02-21 19:40:02,15.69950999,0.0003829,70.0011,335.3164,263.3474,96.7286,0.00016767,0.0002002,0.0,0 STARLINK-5288,1 55307U 23010AQ  23052.81946984  .00020020  00000-0  16767-3 0  9991,2 55307  70.0011 335.3164 0003829 263.3474  96.7286 15.69950999  5732,6737.174,91.723,361.619,356.46,0.0
55307.0,STARLINK-5288,PAYLOAD,2023-02-21 21:11:47,15.69951364,0.0003792,70.0011,335.1374,263.2543,96.8222,0.00016841,0.0002011,0.0,0 STARLINK-5288,1 55307U 23010AQ  23052.88318561  .00020110  00000-0  16841-3 0  9995,2 55307  70.0011 335.1374 0003792 263.2543  96.8222 15.69951364  6063,6737.173,91.723,361.593,356.483,0.0
55307.0,STARLINK-5288,PAYLOAD,2023-02-22 03:18:48,15.69931435,0.0003608,70.0009,334.4205,267.3367,92.7416,0.00011564,0.00013719,0.0,0 STARLINK-5288,1 55307U 23010AQ  23053.13805663  .00013719  00000-0  11564-3 0  9992,2 55307  70.0009 334.4205 0003608 267.3367  92.7416 15.69931435  5785,6737.23,91.724,361.526,356.664,0.0
55307.0,STARLINK-5288,PAYLOAD,2023-02-22 04:50:33,15.69923727,0.0003735,70.001,334.2412,265.2941,94.7828,7.7451e-05,9.111e-05,0.0,0 STARLINK-5288,1 55307U 23010AQ  23053.20177460  .00009111  00000-0  77451-4 0  9996,2 55307  70.0010 334.2412 0003735 265.2941  94.7828 15.69923727  5796,6737.252,91.724,361.634,356.601,0.0
55307.0,STARLINK-5288,PAYLOAD,2023-02-22 18:36:19,15.69923738,0.0003564,70.0008,332.6289,269.4168,90.6619,0.00014597,0.00017376,0.0,0 STARLINK-5288,1 55307U 23010AQ  23053.77523025  .00017376  00000-0  14597-3 0  9993,2 55307  70.0008 332.6289 0003564 269.4168  90.6619 15.69923738  5889,6737.252,91.724,361.518,356.716,0.0
55307.0,STARLINK-5288,PAYLOAD,2023-02-22 21:39:50,15.69942391,0.0003677,70.0005,332.2701,268.7754,91.3021,0.0003005,0.00036105,0.0,0 STARLINK-5288,1 55307U 23010AQ  23053.90266207  .00036105  00000-0  30050-3 0  9997,2 55307  70.0005 332.2701 0003677 268.7754  91.3021 15.69942391  6229,6737.199,91.723,361.541,356.587,0.0
55307.0,STARLINK-5288,PAYLOAD,2023-02-23 06:50:20,15.69926827,0.0002625,70.0005,331.1957,270.6915,89.398,0.00055332,0.00066852,0.0,0 STARLINK-5288,1 55307U 23010AQ  23054.28496408  .00066852  00000-0  55332-3 0  9999,2 55307  70.0005 331.1957 0002625 270.6915  89.3980 15.69926827  6286,6737.243,91.724,360.877,357.34,0.0
55307.0,STARLINK-5288,PAYLOAD,2023-02-23 20:36:06,15.69956697,0.0003724,70.0,329.5833,267.6689,92.4081,0.00059425,0.00071958,0.0,0 STARLINK-5288,1 55307U 23010AQ  23054.85841182  .00071958  00000-0  59425-3 0  9995,2 55307  70.0000 329.5833 0003724 267.6689  92.4081 15.69956697  6375,6737.158,91.722,361.532,356.514,0.0
55307.0,STARLINK-5288,PAYLOAD,2023-02-23 22:07:52,15.69937191,0.000462,70.0,329.4045,282.2632,77.8046,0.00047534,0.00057381,0.0,0 STARLINK-5288,1 55307U 23010AQ  23054.92213040  .00057381  00000-0  47534-3 0  9991,2 55307  70.0000 329.4045 0004620 282.2632  77.8046 15.69937191  6068,6737.214,91.723,362.191,355.966,0.0
55307.0,STARLINK-5288,PAYLOAD,2023-02-24 04:14:52,15.69969566,0.0004021,70.0,328.6876,274.8437,85.2299,0.00045626,0.00055121,0.0,0 STARLINK-5288,1 55307U 23010AQ  23055.17699167  .00055121  00000-0  45626-3 0  9997,2 55307  70.0000 328.6876 0004021 274.8437  85.2299 15.69969566  6420,6737.121,91.722,361.695,356.277,0.0
55307.0,STARLINK-5288,PAYLOAD,2023-02-24 18:00:38,15.69920659,0.000382,70.0006,327.0749,271.978,88.0978,0.00037474,0.00045086,0.0,0 STARLINK-5288,1 55307U 23010AQ  23055.75045079  .00045086  00000-0  37474-3 0  9999,2 55307  70.0006 327.0749 0003820 271.9780  88.0978 15.69920659  6192,6737.261,91.724,361.7,356.552,0.0
55307.0,STARLINK-5288,PAYLOAD,2023-02-24 19:32:23,15.69927197,0.0003614,70.0004,326.8958,268.5862,91.4919,0.00022121,0.00026474,0.0,0 STARLINK-5288,1 55307U 23010AQ  23055.81416636  .00026474  00000-0  22121-3 0  9990,2 55307  70.0004 326.8958 0003614 268.5862  91.4919 15.69927197  6527,6737.242,91.724,361.542,356.672,0.0
